[{"OBJECT_NAME":"STARLINK-35460","OBJECT_ID":"2025-253K","EPOCH":"2026-03-09T10:38:29.169888","MEAN_MOTION":15.27567867,"ECCENTRICITY":0.00014441,"INCLINATION":43.0041,"RA_OF_ASC_NODE":214.1724,"ARG_OF_PERICENTER":270.1905,"MEAN_ANOMALY":89.8781,"EPHEMERIS_TYPE":0,"CLASSIFICATION_TYPE":"U","NORAD_CAT_ID":66328,"ELEMENT_SET_NO":999,"REV_AT_EPOCH":2020,"BSTAR":0.00037033081,"MEAN_MOTION_DOT":9.939e-5,"MEAN_MOTION_DDOT":0},{"OBJECT_NAME":"CZ-6A DEB","OBJECT_ID":"2024-140RA","EPOCH":"2026-03-09T01:51:18.259488","MEAN_MOTION":15.31763252,"ECCENTRICITY":0.00411794,"INCLINATION":89.1856,"RA_OF_ASC_NODE":296.0787,"ARG_OF_PERICENTER":96.6516,"MEAN_ANOMALY":263.9425,"EPHEMERIS_TYPE":0,"CLASSIFICATION_TYPE":"U","NORAD_CAT_ID":61156,"ELEMENT_SET_NO":999,"REV_AT_EPOCH":8391,"BSTAR":0.0079173326,"MEAN_MOTION_DOT":0.00256788,"MEAN_MOTION_DDOT":0}]
